STARLINK-4300           
1 53173U 22083AT  26077.47493620 -.00000206  00000+0  51268-5 0  9996
2 53173  53.2183  99.6722 0001386 100.0491 260.0658 15.08837403203024
STARLINK-4205           
1 53174U 22083AU  26077.56283414  .00001550  00000+0  11546-3 0  9990
2 53174  53.2165 134.2219 0001473  85.3224 274.7936 15.08831412202550
STARLINK-4292           
1 53175U 22083AV  26077.43307373 -.00000116  00000+0  10825-4 0  9996
2 53175  53.2169 134.8693 0001265  87.4645 272.6492 15.08839947202539
STARLINK-4294           
1 53176U 22083AW  26077.30472398 -.00000373  00000+0 -53341-5 0  9990
2 53176  53.2171 110.3574 0001303  92.8488 267.2653 15.08833047202868
STARLINK-4298           
1 53177U 22083AX  26077.46757749 -.00000382  00000+0 -58785-5 0  9991
2 53177  53.2167  99.7033 0001572  83.1143 277.0028 15.08837026203028
STARLINK-4280           
1 53178U 22083AY  26077.49288037  .00001009  00000+0  81493-4 0  9990
2 53178  53.2167 124.6027 0001241  83.2956 276.8178 15.08837159202676
STARLINK-4276           
1 53179U 22083AZ  26077.41922676  .00000565  00000+0  53613-4 0  9996
2 53179  53.2170  84.5306 0001384  86.1726 273.9424 15.08841270203234
STARLINK-4258           
1 53180U 22083BA  26077.31254140 -.00000210  00000+0  48973-5 0  9993
2 53180  53.2174  85.2807 0001311  89.0571 271.0571 15.08835437203212
STARLINK-4278           
1 53182U 22083BC  26077.46389312  .00000346  00000+0  39857-4 0  9990
2 53182  53.2169  99.7209 0001368  86.6096 273.5053 15.08840899203020
STARLINK-4268           
1 53183U 22083BD  26077.40593557 -.00001565  00000+0 -80263-4 0  9996
2 53183  53.2170  89.9022 0001308  74.9773 285.1364 15.08840676203154
STARLINK-4257           
1 53184U 22083BE  26077.41555116  .00001023  00000+0  82350-4 0  9993
2 53184  53.2170  84.5329 0001380  86.5980 273.5171 15.08827914203242
STARLINK-4391           
1 53189U 22084A   26077.59563568  .00000660  00000+0  49967-4 0  9991
2 53189  97.6026 139.9506 0000592 189.6722 170.4494 15.05658710201394
STARLINK-4332           
1 53190U 22084B   26077.41010226  .00000914  00000+0  67495-4 0  9990
2 53190  97.6016 139.8042 0000775 141.6717 218.4565 15.05667783201363
STARLINK-4369           
1 53191U 22084C   26077.44030673 -.00001198  00000+0 -88694-4 0  9993
2 53191  97.6023 138.7821 0002968  81.1302 279.0259 15.01275565200629
STARLINK-4375           
1 53192U 22084D   26077.44057054 -.00000522  00000+0 -31954-4 0  9993
2 53192  97.6037 139.8330 0000796 161.0673 199.0584 15.05645313201368
STARLINK-4351           
1 53193U 22084E   26077.44401505  .00000141  00000+0  15543-4 0  9999
2 53193  97.6030 138.7870 0002166  83.5584 276.5887 15.01262302201648
