[{"OBJECT_NAME":"STARLINK-4300","OBJECT_ID":"2022-083AT","EPOCH":"2026-03-18T11:23:54.487680","MEAN_MOTION":15.08837403,"ECCENTRICITY":0.00013864,"INCLINATION":53.2183,"RA_OF_ASC_NODE":99.6722,"ARG_OF_PERICENTER":100.0491,"MEAN_ANOMALY":260.0658,"EPHEMERIS_TYPE":0,"CLASSIFICATION_TYPE":"U","NORAD_CAT_ID":53173,"ELEMENT_SET_NO":999,"REV_AT_EPOCH":20302,"BSTAR":5.126783e-6,"MEAN_MOTION_DOT":-2.06e-6,"MEAN_MOTION_DDOT":0},{"OBJECT_NAME":"STARLINK-4205","OBJECT_ID":"2022-083AU","EPOCH":"2026-03-18T13:30:28.869696","MEAN_MOTION":15.08831412,"ECCENTRICITY":0.00014739,"INCLINATION":53.2165,"RA_OF_ASC_NODE":134.2219,"ARG_OF_PERICENTER":85.3224,"MEAN_ANOMALY":274.7936,"EPHEMERIS_TYPE":0,"CLASSIFICATION_TYPE":"U","NORAD_CAT_ID":53174,"ELEMENT_SET_NO":999,"REV_AT_EPOCH":20255,"BSTAR":0.00011545879,"MEAN_MOTION_DOT":1.55e-5,"MEAN_MOTION_DDOT":0},{"OBJECT_NAME":"STARLINK-4292","OBJECT_ID":"2022-083AV","EPOCH":"2026-03-18T10:23:37.570272","MEAN_MOTION":15.08839947,"ECCENTRICITY":0.00012651,"INCLINATION":53.2169,"RA_OF_ASC_NODE":134.8693,"ARG_OF_PERICENTER":87.4645,"MEAN_ANOMALY":272.6492,"EPHEMERIS_TYPE":0,"CLASSIFICATION_TYPE":"U","NORAD_CAT_ID":53175,"ELEMENT_SET_NO":999,"REV_AT_EPOCH":20253,"BSTAR":1.0825084e-5,"MEAN_MOTION_DOT":-1.16e-6,"MEAN_MOTION_DDOT":0},{"OBJECT_NAME":"STARLINK-4294","OBJECT_ID":"2022-083AW","EPOCH":"2026-03-18T07:18:48.151872","MEAN_MOTION":15.08833047,"ECCENTRICITY":0.0001303,"INCLINATION":53.2171,"RA_OF_ASC_NODE":110.3574,"ARG_OF_PERICENTER":92.8488,"MEAN_ANOMALY":267.2653,"EPHEMERIS_TYPE":0,"CLASSIFICATION_TYPE":"U","NORAD_CAT_ID":53176,"ELEMENT_SET_NO":999,"REV_AT_EPOCH":20286,"BSTAR":-5.3341e-6,"MEAN_MOTION_DOT":-3.73e-6,"MEAN_MOTION_DDOT":0},{"OBJECT_NAME":"STARLINK-4298","OBJECT_ID":"2022-083AX","EPOCH":"2026-03-18T11:13:18.695136","MEAN_MOTION":15.08837026,"ECCENTRICITY":0.00015726,"INCLINATION":53.2167,"RA_OF_ASC_NODE":99.7033,"ARG_OF_PERICENTER":83.1143,"MEAN_ANOMALY":277.0028,"EPHEMERIS_TYPE":0,"CLASSIFICATION_TYPE":"U","NORAD_CAT_ID":53177,"ELEMENT_SET_NO":999,"REV_AT_EPOCH":20302,"BSTAR":-5.878468e-6,"MEAN_MOTION_DOT":-3.82e-6,"MEAN_MOTION_DDOT":0},{"OBJECT_NAME":"STARLINK-4280","OBJECT_ID":"2022-083AY","EPOCH":"2026-03-18T11:49:44.863968","MEAN_MOTION":15.08837159,"ECCENTRICITY":0.00012412,"INCLINATION":53.2167,"RA_OF_ASC_NODE":124.6027,"ARG_OF_PERICENTER":83.2956,"MEAN_ANOMALY":276.8178,"EPHEMERIS_TYPE":0,"CLASSIFICATION_TYPE":"U","NORAD_CAT_ID":53178,"ELEMENT_SET_NO":999,"REV_AT_EPOCH":20267,"BSTAR":8.1492921e-5,"MEAN_MOTION_DOT":1.009e-5,"MEAN_MOTION_DDOT":0},{"OBJECT_NAME":"STARLINK-4276","OBJECT_ID":"2022-083AZ","EPOCH":"2026-03-18T10:03:41.192064","MEAN_MOTION":15.0884127,"ECCENTRICITY":0.00013842,"INCLINATION":53.217,"RA_OF_ASC_NODE":84.5306,"ARG_OF_PERICENTER":86.1726,"MEAN_ANOMALY":273.9424,"EPHEMERIS_TYPE":0,"CLASSIFICATION_TYPE":"U","NORAD_CAT_ID":53179,"ELEMENT_SET_NO":999,"REV_AT_EPOCH":20323,"BSTAR":5.3612642e-5,"MEAN_MOTION_DOT":5.65e-6,"MEAN_MOTION_DDOT":0},{"OBJECT_NAME":"STARLINK-4258","OBJECT_ID":"2022-083BA","EPOCH":"2026-03-18T07:30:03.576960","MEAN_MOTION":15.08835437,"ECCENTRICITY":0.0001311,"INCLINATION":53.2174,"RA_OF_ASC_NODE":85.2807,"ARG_OF_PERICENTER":89.0571,"MEAN_ANOMALY":271.0571,"EPHEMERIS_TYPE":0,"CLASSIFICATION_TYPE":"U","NORAD_CAT_ID":53180,"ELEMENT_SET_NO":999,"REV_AT_EPOCH":20321,"BSTAR":4.8973e-6,"MEAN_MOTION_DOT":-2.1e-6,"MEAN_MOTION_DDOT":0},{"OBJECT_NAME":"STARLINK-4278","OBJECT_ID":"2022-083BC","EPOCH":"2026-03-18T11:08:00.365568","MEAN_MOTION":15.08840899,"ECCENTRICITY":0.00013682,"INCLINATION":53.2169,"RA_OF_ASC_NODE":99.7209,"ARG_OF_PERICENTER":86.6096,"MEAN_ANOMALY":273.5053,"EPHEMERIS_TYPE":0,"CLASSIFICATION_TYPE":"U","NORAD_CAT_ID":53182,"ELEMENT_SET_NO":999,"REV_AT_EPOCH":20302,"BSTAR":3.9857223e-5,"MEAN_MOTION_DOT":3.46e-6,"MEAN_MOTION_DDOT":0},{"OBJECT_NAME":"STARLINK-4268","OBJECT_ID":"2022-083BD","EPOCH":"2026-03-18T09:44:32.833248","MEAN_MOTION":15.08840676,"ECCENTRICITY":0.0001308,"INCLINATION":53.217,"RA_OF_ASC_NODE":89.9022,"ARG_OF_PERICENTER":74.9773,"MEAN_ANOMALY":285.1364,"EPHEMERIS_TYPE":0,"CLASSIFICATION_TYPE":"U","NORAD_CAT_ID":53183,"ELEMENT_SET_NO":999,"REV_AT_EPOCH":20315,"BSTAR":-8.0262621e-5,"MEAN_MOTION_DOT":-1.565e-5,"MEAN_MOTION_DDOT":0},{"OBJECT_NAME":"STARLINK-4257","OBJECT_ID":"2022-083BE","EPOCH":"2026-03-18T09:58:23.620224","MEAN_MOTION":15.08827914,"ECCENTRICITY":0.00013806,"INCLINATION":53.217,"RA_OF_ASC_NODE":84.5329,"ARG_OF_PERICENTER":86.598,"MEAN_ANOMALY":273.5171,"EPHEMERIS_TYPE":0,"CLASSIFICATION_TYPE":"U","NORAD_CAT_ID":53184,"ELEMENT_SET_NO":999,"REV_AT_EPOCH":20324,"BSTAR":8.2349722e-5,"MEAN_MOTION_DOT":1.023e-5,"MEAN_MOTION_DDOT":0},{"OBJECT_NAME":"STARLINK-4391","OBJECT_ID":"2022-084A","EPOCH":"2026-03-18T14:17:42.922752","MEAN_MOTION":15.0565871,"ECCENTRICITY":5.928e-5,"INCLINATION":97.6026,"RA_OF_ASC_NODE":139.9506,"ARG_OF_PERICENTER":189.6722,"MEAN_ANOMALY":170.4494,"EPHEMERIS_TYPE":0,"CLASSIFICATION_TYPE":"U","NORAD_CAT_ID":53189,"ELEMENT_SET_NO":999,"REV_AT_EPOCH":20139,"BSTAR":4.9967011e-5,"MEAN_MOTION_DOT":6.6e-6,"MEAN_MOTION_DDOT":0},{"OBJECT_NAME":"STARLINK-4332","OBJECT_ID":"2022-084B","EPOCH":"2026-03-18T09:50:32.835264","MEAN_MOTION":15.05667783,"ECCENTRICITY":7.755e-5,"INCLINATION":97.6016,"RA_OF_ASC_NODE":139.8042,"ARG_OF_PERICENTER":141.6717,"MEAN_ANOMALY":218.4565,"EPHEMERIS_TYPE":0,"CLASSIFICATION_TYPE":"U","NORAD_CAT_ID":53190,"ELEMENT_SET_NO":999,"REV_AT_EPOCH":20136,"BSTAR":6.7494721e-5,"MEAN_MOTION_DOT":9.14e-6,"MEAN_MOTION_DDOT":0},{"OBJECT_NAME":"STARLINK-4369","OBJECT_ID":"2022-084C","EPOCH":"2026-03-18T10:34:02.501472","MEAN_MOTION":15.01275565,"ECCENTRICITY":0.00029681,"INCLINATION":97.6023,"RA_OF_ASC_NODE":138.7821,"ARG_OF_PERICENTER":81.1302,"MEAN_ANOMALY":279.0259,"EPHEMERIS_TYPE":0,"CLASSIFICATION_TYPE":"U","NORAD_CAT_ID":53191,"ELEMENT_SET_NO":999,"REV_AT_EPOCH":20062,"BSTAR":-8.8693587e-5,"MEAN_MOTION_DOT":-1.198e-5,"MEAN_MOTION_DDOT":0},{"OBJECT_NAME":"STARLINK-4375","OBJECT_ID":"2022-084D","EPOCH":"2026-03-18T10:34:25.294656","MEAN_MOTION":15.05645313,"ECCENTRICITY":7.961e-5,"INCLINATION":97.6037,"RA_OF_ASC_NODE":139.833,"ARG_OF_PERICENTER":161.0673,"MEAN_ANOMALY":199.0584,"EPHEMERIS_TYPE":0,"CLASSIFICATION_TYPE":"U","NORAD_CAT_ID":53192,"ELEMENT_SET_NO":999,"REV_AT_EPOCH":20136,"BSTAR":-3.1954461e-5,"MEAN_MOTION_DOT":-5.22e-6,"MEAN_MOTION_DDOT":0},{"OBJECT_NAME":"STARLINK-4351","OBJECT_ID":"2022-084E","EPOCH":"2026-03-18T10:39:22.900320","MEAN_MOTION":15.01262302,"ECCENTRICITY":0.00021667,"INCLINATION":97.603,"RA_OF_ASC_NODE":138.787,"ARG_OF_PERICENTER":83.5584,"MEAN_ANOMALY":276.5887,"EPHEMERIS_TYPE":0,"CLASSIFICATION_TYPE":"U","NORAD_CAT_ID":53193,"ELEMENT_SET_NO":999,"REV_AT_EPOCH":20164,"BSTAR":1.5543273e-5,"MEAN_MOTION_DOT":1.41e-6,"MEAN_MOTION_DDOT":0}]
